[{
        "lat": 51.523499,
        "lon": 6.926866,
        "title": "DGB",
        "description": "Demo Garagen Bottrop",
        "linkAdress": "https://demo.garagen.app/anfrage/p2",
        "linkName": "jetzt Buchen",
        "strasse": "Gladbeckerstr.",
        "hausnr": 10,
        "ort": "Bottrop",
        "plz": 46242,
        "land": "DE"
    },
    {
        "lat": 51.503373,
        "lon": 6.916616,
        "title": "LRST",
        "description": "Lagerraum Self Storage",
        "linkAdress": "https://demo.garagen.app/anfrage/p4",
        "linkName": "jetzt Buchen",
        "strasse": "Karl-Peters-Str.",
        "hausnr": 25,
        "ort": "Bottrop",
        "plz": 46242,
        "land": "DE"
    },
    {
        "lat": 48.156956,
        "lon": 11.525682,
        "title": "MPM",
        "description": "Park München",
        "linkAdress": "https://demo.garagen.app/anfrage/p3",
        "linkName": "jetzt Buchen",
        "strasse": "Renatastr.",
        "hausnr": 71,
        "ort": "München",
        "plz": 80639,
        "land": "DE"
    },
    {
        "lat": 48.256081,
        "lon": 13.0331,
        "title": "Park Osttirol",
        "description": "POT",
        "linkAdress": "https://demo.garagen.app/anfrage/p6",
        "linkName": "jetzt Buchen",
        "strasse": "Lienzerstr.",
        "hausnr": 2,
        "ort": "Braunau",
        "plz": 5280,
        "land": "AUT"
    },{
        "lat": 52.5167,
        "lon": 13.3833,
        "title": "Berlin",
        "description": "Demo Garagen ",
        "linkAdress": "https://demo.garagen.app/anfrage",
        "linkName": "jetzt Buchen",
        "strasse": "",
        "hausnr": 0,
        "ort": "Berlin",
        "plz": 0,
        "land": "DE"
    },{
        "lat": 53.5500,
        "lon": 10.0000,
        "title": "Hamburg",
        "description": "Demo Garagen ",
        "linkAdress": "https://demo.garagen.app/anfrage",
        "linkName": "jetzt Buchen",
        "strasse": "",
        "hausnr": 0,
        "ort": "Hamburg",
        "plz": 0,
        "land": "DE"
    },{
        "lat": 50.9422,
        "lon": 50.9422,
        "title": "Köln",
        "description": "Demo Garagen ",
        "linkAdress": "https://demo.garagen.app/anfrage",
        "linkName": "jetzt Buchen",
        "strasse": "",
        "hausnr": 0,
        "ort": "Köln",
        "plz": 0,
        "land": "DE"
    },{
        "lat": 50.1136,
        "lon": 8.6797,
        "title": "Frankfurt",
        "description": "Demo Garagen ",
        "linkAdress": "https://demo.garagen.app/anfrage",
        "linkName": "jetzt Buchen",
        "strasse": "",
        "hausnr": 0,
        "ort": "Frankfurt",
        "plz": 0,
        "land": "DE"
    },{
        "lat": 53.1153,
        "lon": 8.7975,
        "title": "Bremen",
        "description": "Demo Garagen ",
        "linkAdress": "https://demo.garagen.app/anfrage",
        "linkName": "jetzt Buchen",
        "strasse": "",
        "hausnr": 0,
        "ort": "Bremen",
        "plz": 0,
        "land": "DE"
    },{
        "lat": 51.2311,
        "lon": 6.7724,
        "title": "Düsseldorf",
        "description": "Demo Garagen ",
        "linkAdress": "https://demo.garagen.app/anfrage",
        "linkName": "jetzt Buchen",
        "strasse": "",
        "hausnr": 0,
        "ort": "Düsseldorf",
        "plz": 0,
        "land": "DE"
    },{
        "lat": 48.7761,
        "lon": 9.1775,
        "title": "Stuttgart",
        "description": "Demo Garagen ",
        "linkAdress": "https://demo.garagen.app/anfrage",
        "linkName": "jetzt Buchen",
        "strasse": "",
        "hausnr": 0,
        "ort": "Stuttgart",
        "plz": 0,
        "land": "DE"
    },{
        "lat": 51.3333,
        "lon": 12.3833,
        "title": "Leipzig",
        "description": "Demo Garagen ",
        "linkAdress": "https://demo.garagen.app/anfrage",
        "linkName": "jetzt Buchen",
        "strasse": "",
        "hausnr": 0,
        "ort": "Leipzig",
        "plz": 0,
        "land": "DE"
    },{
        "lat": 51.5139,
        "lon": 7.4653,
        "title": "Dortmund",
        "description": "Demo Garagen ",
        "linkAdress": "https://demo.garagen.app/anfrage",
        "linkName": "jetzt Buchen",
        "strasse": "",
        "hausnr": 0,
        "ort": "Dortmund",
        "plz": 0,
        "land": "DE"
    },{
        "lat": 51.4508,
        "lon": 7.0131,
        "title": "Essen",
        "description": "Demo Garagen ",
        "linkAdress": "https://demo.garagen.app/anfrage",
        "linkName": "jetzt Buchen",
        "strasse": "",
        "hausnr": 0,
        "ort": "Essen",
        "plz": 0,
        "land": "DE"
    },{
        "lat": 51.0500,
        "lon": 13.7400,
        "title": "Dresden",
        "description": "Demo Garagen ",
        "linkAdress": "https://demo.garagen.app/anfrage",
        "linkName": "jetzt Buchen",
        "strasse": "",
        "hausnr": 0,
        "ort": "Dresden",
        "plz": 0,
        "land": "DE"
    },{
        "lat": 52.3744,
        "lon": 9.7386,
        "title": "Hannover",
        "description": "Demo Garagen ",
        "linkAdress": "https://demo.garagen.app/anfrage",
        "linkName": "jetzt Buchen",
        "strasse": "",
        "hausnr": 0,
        "ort": "Hannover",
        "plz": 0,
        "land": "DE"
    },{
        "lat": 51.4322,
        "lon": 6.7611,
        "title": "Duisburg",
        "description": "Demo Garagen ",
        "linkAdress": "https://demo.garagen.app/anfrage",
        "linkName": "jetzt Buchen",
        "strasse": "",
        "hausnr": 0,
        "ort": "Duisburg",
        "plz": 0,
        "land": "DE"
    },{
        "lat": 50.7339,
        "lon": 7.0997,
        "title": "Bonn",
        "description": "Demo Garagen ",
        "linkAdress": "https://demo.garagen.app/anfrage",
        "linkName": "jetzt Buchen",
        "strasse": "",
        "hausnr": 0,
        "ort": "Bonn",
        "plz": 0,
        "land": "DE"
    },{
        "lat": 51.9625,
        "lon": 7.6256,
        "title": "Münster",
        "description": "Demo Garagen ",
        "linkAdress": "https://demo.garagen.app/anfrage",
        "linkName": "jetzt Buchen",
        "strasse": "",
        "hausnr": 0,
        "ort": "Münster",
        "plz": 0,
        "land": "DE"
    },{
        "lat": 51.2000,
        "lon": 6.4333,
        "title": "Mönchengladbach",
        "description": "Demo Garagen ",
        "linkAdress": "https://demo.garagen.app/anfrage",
        "linkName": "jetzt Buchen",
        "strasse": "",
        "hausnr": 0,
        "ort": "Mönchengladbach",
        "plz": 0,
        "land": "DE"
    },{
        "lat": 51.4699,
        "lon": 6.8514,
        "title": "Oberhausen",
        "description": "Demo Garagen ",
        "linkAdress": "https://demo.garagen.app/anfrage",
        "linkName": "jetzt Buchen",
        "strasse": "",
        "hausnr": 0,
        "ort": "Oberhausen",
        "plz": 0,
        "land": "DE"
    },{
        "lat": 51.5232,
        "lon": 6.9253,
        "title": "Bottrop",
        "description": "Demo Garagen ",
        "linkAdress": "https://demo.garagen.app/anfrage",
        "linkName": "jetzt Buchen",
        "strasse": "",
        "hausnr": 0,
        "ort": "Bottrop",
        "plz": 0,
        "land": "DE"
    },{
        "lat": 51.3166,
        "lon": 9.4912,
        "title": "Kassel",
        "description": "Demo Garagen ",
        "linkAdress": "https://demo.garagen.app/anfrage",
        "linkName": "jetzt Buchen",
        "strasse": "",
        "hausnr": 0,
        "ort": "Kassel",
        "plz": 0,
        "land": "DE"
    }
]